*******************************************************************************
 Revised: Sep 29, 2017              Kale / (Jupiter)                        537
  
 Jovian irregular satellite.
*******************************************************************************
 
 
*******************************************************************************
Ephemeris / WWW_USER Sun Nov 12 11:24:11 2017 Pasadena, USA      / Horizons    
*******************************************************************************
Target body name: Kale (537)                      {source: jup341}
Center body name: Solar System Barycenter (0)     {source: DE431mx}
Center-site name: BODY CENTER
*******************************************************************************
Start time      : A.D. 2017-Jul-10 00:00:00.0000 TDB
Stop  time      : A.D. 2020-Aug-13 00:00:00.0000 TDB
Step-size       : 1440 minutes
*******************************************************************************
Center geodetic : 0.00000000,0.00000000,0.0000000 {E-lon(deg),Lat(deg),Alt(km)}
Center cylindric: 0.00000000,0.00000000,0.0000000 {E-lon(deg),Dxy(km),Dz(km)}
Center radii    : (undefined)                                                  
Output units    : KM-S                                                         
Output type     : GEOMETRIC cartesian states
Output format   : 3 (position, velocity, LT, range, range-rate)
Reference frame : ICRF/J2000.0                                                 
Coordinate systm: Ecliptic and Mean Equinox of Reference Epoch                 
*******************************************************************************
            JDTDB,            Calendar Date (TDB),                      X,                      Y,                      Z,                     VX,                     VY,                     VZ,                     LT,                     RG,                     RR,
**************************************************************************************************************************************************************************************************************************************************************************
$$SOE
2459017.500000000, A.D. 2020-Jun-17 00:00:00.0000,  2.540940094822823E+08, -7.064815058412149E+08,  8.702704502258599E+05,  1.470506153093634E+01,  5.032339324159180E+00,  4.457750373726643E-03,  2.504354801021097E+03,  7.507866815022156E+08,  2.413698382730749E-01,
2459018.500000000, A.D. 2020-Jun-18 00:00:00.0000,  2.553645415618207E+08, -7.060468861476517E+08,  8.704688216741383E+05,  1.470536490968918E+01,  5.028266107534176E+00,  1.229814412184727E-04,  2.504428931551257E+03,  7.508089052760652E+08,  2.730884600947881E-01,
2459019.500000000, A.D. 2020-Jun-19 00:00:00.0000,  2.566350898437174E+08, -7.056126276102147E+08,  8.702897602562308E+05,  1.470543582122616E+01,  5.023979270333474E+00, -4.279188209796780E-03,  2.504512219672077E+03,  7.508338744265280E+08,  3.049195205974511E-01,
2459020.500000000, A.D. 2020-Jun-20 00:00:00.0000,  2.579056340436133E+08, -7.051787486732032E+08,  8.697274255966544E+05,  1.470526964553331E+01,  5.019479121846104E+00, -8.749147469478302E-03,  2.504604697172625E+03,  7.508615984837271E+08,  3.368587189917930E-01,
2459021.500000000, A.D. 2020-Jun-21 00:00:00.0000,  2.591761534769898E+08, -7.047452677497337E+08,  8.687759444011450E+05,  1.470486175089108E+01,  5.014766065327436E+00, -1.328727262754126E-02,  2.504706394581618E+03,  7.508920865999411E+08,  3.689016223181456E-01,
2459022.500000000, A.D. 2020-Jun-22 00:00:00.0000,  2.604466270571326E+08, -7.043122032158936E+08,  8.674294109698236E+05,  1.470420741632385E+01,  5.009840557003651E+00, -1.789393464897304E-02,  2.504817341135328E+03,  7.509253475399843E+08,  4.010436775477360E-01,
2459023.500000000, A.D. 2020-Jun-23 00:00:00.0000,  2.617170332793998E+08, -7.038795734026901E+08,  8.656818890416920E+05,  1.470330180590433E+01,  5.004703196921102E+00, -2.256947231704287E-02,  2.504937564722790E+03,  7.509613896647793E+08,  4.332801170494722E-01,
2459024.500000000, A.D. 2020-Jun-24 00:00:00.0000,  2.629873502335026E+08, -7.034473965825582E+08,  8.635274138523340E+05,  1.470214014144042E+01,  4.999354670003243E+00, -2.731421807289558E-02,  2.505067091846419E+03,  7.510002209195495E+08,  4.656060744538162E-01,
2459025.500000000, A.D. 2020-Jun-25 00:00:00.0000,  2.642575555825566E+08, -7.030156909701451E+08,  8.609599913750291E+05,  1.470071756889334E+01,  4.993795821775733E+00, -3.212846613733134E-02,  2.505205947588879E+03,  7.510418488238889E+08,  4.980164675478472E-01,
2459026.500000000, A.D. 2020-Jun-26 00:00:00.0000,  2.655276265731816E+08, -7.025844746993291E+08,  8.579736037908494E+05,  1.469902915721083E+01,  4.988027452632490E+00, -3.701253886629274E-02,  2.505354155541847E+03,  7.510862804504048E+08,  5.305061908869582E-01,
2459027.500000000, A.D. 2020-Jun-27 00:00:00.0000,  2.667975400211461E+08, -7.021537658319955E+08,  8.545622057329714E+05,  1.469706991945719E+01,  4.982050554140370E+00, -4.196671351256720E-02,  2.505511737805547E+03,  7.511335224245762E+08,  5.630699017964872E-01,
2459028.500000000, A.D. 2020-Jun-28 00:00:00.0000,  2.680672723115973E+08, -7.017235823376282E+08,  8.507197292777896E+05,  1.469483485673108E+01,  4.975866224672485E+00, -4.699124988790682E-02,  2.505678714914257E+03,  7.511835809024262E+08,  5.957021155631950E-01,
2459029.500000000, A.D. 2020-Jun-29 00:00:00.0000,  2.693367993943749E+08, -7.012939420893233E+08,  8.464400839075744E+05,  1.469231888881486E+01,  4.969475618438640E+00, -5.208640440076873E-02,  2.505855105807478E+03,  7.512364615618738E+08,  6.283972287784227E-01,
2459030.500000000, A.D. 2020-Jun-30 00:00:00.0000,  2.706060967775562E+08, -7.008648628537402E+08,  8.417171584270000E+05,  1.468951687763832E+01,  4.962880052290375E+00, -5.725239726167786E-02,  2.506040927780128E+03,  7.512921695878049E+08,  6.611494281180512E-01,
2459031.500000000, A.D. 2020-Jul-01 00:00:00.0000,  2.718751395241213E+08, -7.004363622773291E+08,  8.365448239450455E+05,  1.468642366026906E+01,  4.956080980327057E+00, -6.248942163810711E-02,  2.506236196424993E+03,  7.513507096548193E+08,  6.939527265119396E-01,
2459032.500000000, A.D. 2020-Jul-02 00:00:00.0000,  2.731439022497768E+08, -7.000084578769451E+08,  8.309169354371727E+05,  1.468303404284529E+01,  4.949079946791541E+00, -6.779765815665728E-02,  2.506440925590414E+03,  7.514120859145453E+08,  7.268010055744322E-01,
2459033.500000000, A.D. 2020-Jul-03 00:00:00.0000,  2.744123591195447E+08, -6.995811670313275E+08,  8.248273330979049E+05,  1.467934278596943E+01,  4.941878612815908E+00, -7.317726566457217E-02,  2.506655127339353E+03,  7.514763019833676E+08,  7.596879859362273E-01,
2459034.500000000, A.D. 2020-Jul-04 00:00:00.0000,  2.756804838440524E+08, -6.991545069693427E+08,  8.182698447462320E+05,  1.467534461398379E+01,  4.934478786438910E+00, -7.862837194771322E-02,  2.506878811898203E+03,  7.515433609270819E+08,  7.926072032854679E-01,
2459035.500000000, A.D. 2020-Jul-05 00:00:00.0000,  2.769482496771867E+08, -6.987284947582818E+08,  8.112382881592512E+05,  1.467103423076222E+01,  4.926882391350235E+00, -8.415108444614350E-02,  2.507111987607634E+03,  7.516132652461582E+08,  8.255520440017052E-01,
2459036.500000000, A.D. 2020-Jul-06 00:00:00.0000,  2.782156294140160E+08, -6.983031472954677E+08,  8.037264723145366E+05,  1.466640630666760E+01,  4.919091440240063E+00, -8.974549869990600E-02,  2.507354660884250E+03,  7.516860168642457E+08,  8.585157658731053E-01,
2459037.500000000, A.D. 2020-Jul-07 00:00:00.0000,  2.794825953866109E+08, -6.978784812987217E+08,  7.957281990411580E+05,  1.466145545158533E+01,  4.911108089549663E+00, -9.541168003747980E-02,  2.507606836176320E+03,  7.517616171149023E+08,  8.914914378485761E-01,
2459038.500000000, A.D. 2020-Jul-08 00:00:00.0000,  2.807491194592894E+08, -6.974545132912387E+08,  7.872372665077150E+05,  1.465617623814874E+01,  4.902934684902202E+00, -1.011496489954014E-01,  2.507868515901655E+03,  7.518400667229693E+08,  9.244719071697793E-01,
2459039.500000000, A.D. 2020-Jul-09 00:00:00.0000,  2.820151730282291E+08, -6.970312595882822E+08,  7.782474720778763E+05,  1.465056326229513E+01,  4.894573674305671E+00, -1.069594100780145E-01,  2.508139700396779E+03,  7.519213657893338E+08,  9.574499035307922E-01,
2459040.500000000, A.D. 2020-Jul-10 00:00:00.0000,  2.832807270217014E+08, -6.966087362892717E+08,  7.687526134112775E+05,  1.464461106494166E+01,  4.886027650787531E+00, -1.128409371496415E-01,  2.508420387883884E+03,  7.520055137810231E+08,  9.904179713085590E-01,
2459041.500000000, A.D. 2020-Jul-11 00:00:00.0000,  2.845457518906325E+08, -6.961869592546729E+08,  7.587464945957363E+05,  1.463831414746906E+01,  4.877299439364270E+00, -1.187941447676855E-01,  2.508710574378966E+03,  7.520925095036620E+08,  1.023368395603818E+00,
2459042.500000000, A.D. 2020-Jul-12 00:00:00.0000,  2.858102176232283E+08, -6.957659441075644E+08,  7.482229242864549E+05,  1.463166707600328E+01,  4.868391868734939E+00, -1.248189652169025E-01,  2.509010253706744E+03,  7.521823511059482E+08,  1.056293454330321E+00,
2459043.500000000, A.D. 2020-Jul-13 00:00:00.0000,  2.870740937238144E+08, -6.953457062147726E+08,  7.371757197205126E+05,  1.462466442784419E+01,  4.859308010506507E+00, -1.309152637659061E-01,  2.509319417407703E+03,  7.522750360517833E+08,  1.089185177676610E+00,
2459044.500000000, A.D. 2020-Jul-14 00:00:00.0000,  2.883373492349123E+08, -6.949262606708272E+08,  7.255987116752267E+05,  1.461730063424435E+01,  4.850050993964758E+00, -1.370829112754435E-01,  2.509638054708859E+03,  7.523705611115074E+08,  1.122035460980949E+00,
2459045.500000000, A.D. 2020-Jul-15 00:00:00.0000,  2.895999527136162E+08, -6.945076222929751E+08,  7.134857434232533E+05,  1.460957018036391E+01,  4.840624189104683E+00, -1.433217126193069E-01,  2.509966152471000E+03,  7.524689223460836E+08,  1.154835972099252E+00,
